sat27868
1 27868U 03037A   20046.77938584 -.00000006  00000-0 -11565-3 0  9996
2 27868  82.4738 340.3279 0022943  77.0304 283.3337 12.45138956749737
